start=new Date('2023-02-13T00:00:00.000Z').valueOf();
sats=[{"ECCENTRICITY":"0.00012000","RA_OF_ASC_NODE":"270.5907","OBJECT_NAME":"STARLINK-4024","COUNTRY_CODE":"US","FILE":"3788097","TLE_LINE2":"2 52599  53.2155 270.5907 0001200  84.1899 275.9230 15.08836859 42024","APOAPSIS":"540.585","SEMIMAJOR_AXIS":"6917.890","RCS_SIZE":"LARGE","OBJECT_ID":"2022-052B","MEAN_ELEMENT_THEORY":"SGP4","SITE":"AFETR","MEAN_ANOMALY":"275.9230","CENTER_NAME":"EARTH","LAUNCH_DATE":"2022-05-14","NORAD_CAT_ID":"52599","MEAN_MOTION_DOT":"-0.00000112","REF_FRAME":"TEME","DECAY_DATE":null,"OBJECT_TYPE":"PAYLOAD","PERIOD":"95.438","REV_AT_EPOCH":"4202","BSTAR":"0.00001103100000","ELEMENT_SET_NO":"999","INCLINATION":"53.2155","GP_ID":"225274787","TIME_SYSTEM":"UTC","PERIAPSIS":"538.925","MEAN_MOTION":"15.08836859","ARG_OF_PERICENTER":"84.1899","EPHEMERIS_TYPE":"0","CLASSIFICATION_TYPE":"U","TLE_LINE1":"1 52599U 22052B   23043.88947462 -.00000112  00000-0  11031-4 0  9996","EPOCH":"2023-02-12T21:20:50.607168","MEAN_MOTION_DDOT":"0.0000000000000"},{"APOAPSIS":"540.417","TLE_LINE2":"2 52600  53.2146 279.2687 0000974  51.1807 308.9272 15.08840866 42169","FILE":"3786144","OBJECT_NAME":"STARLINK-4026","COUNTRY_CODE":"US","SEMIMAJOR_AXIS":"6917.878","RA_OF_ASC_NODE":"279.2687","ECCENTRICITY":"0.00009740","MEAN_ELEMENT_THEORY":"SGP4","SITE":"AFETR","MEAN_ANOMALY":"308.9272","RCS_SIZE":"LARGE","OBJECT_ID":"2022-052C","BSTAR":"0.00057626000000","REV_AT_EPOCH":"4216","PERIOD":"95.437","ELEMENT_SET_NO":"999","NORAD_CAT_ID":"52600","MEAN_MOTION_DOT":"0.00008895","CENTER_NAME":"EARTH","LAUNCH_DATE":"2022-05-14","OBJECT_TYPE":"PAYLOAD","REF_FRAME":"TEME","DECAY_DATE":null,"TLE_LINE1":"1 52600U 22052C   23041.95650983  .00008895  00000-0  57626-3 0  9998","MEAN_MOTION_DDOT":"0.0000000000000","EPOCH":"2023-02-10T22:57:22.449312","GP_ID":"225121906","TIME_SYSTEM":"UTC","INCLINATION":"53.2146","CLASSIFICATION_TYPE":"U","EPHEMERIS_TYPE":"0","ARG_OF_PERICENTER":"51.1807","MEAN_MOTION":"15.08840866","PERIAPSIS":"539.069"},{"PERIOD":"95.437","REV_AT_EPOCH":"4202","BSTAR":"0.00002671300000","ELEMENT_SET_NO":"999","LAUNCH_DATE":"2022-05-14","CENTER_NAME":"EARTH","NORAD_CAT_ID":"52601","MEAN_MOTION_DOT":"0.00000137","REF_FRAME":"TEME","DECAY_DATE":null,"OBJECT_TYPE":"PAYLOAD","TLE_LINE1":"1 52601U 22052D   23043.88483947  .00000137  00000-0  26713-4 0  9992","EPOCH":"2023-02-12T21:14:10.130208","MEAN_MOTION_DDOT":"0.0000000000000","INCLINATION":"53.2171","TIME_SYSTEM":"UTC","GP_ID":"225274790","PERIAPSIS":"538.853","MEAN_MOTION":"15.08843988","EPHEMERIS_TYPE":"0","ARG_OF_PERICENTER":"91.2866","CLASSIFICATION_TYPE":"U","COUNTRY_CODE":"US","OBJECT_NAME":"STARLINK-4027","FILE":"3788097","TLE_LINE2":"2 52601  53.2171 270.6148 0001273  91.2866 268.8272 15.08843988 42025","APOAPSIS":"540.614","SEMIMAJOR_AXIS":"6917.868","ECCENTRICITY":"0.00012730","RA_OF_ASC_NODE":"270.6148","MEAN_ELEMENT_THEORY":"SGP4","MEAN_ANOMALY":"268.8272","SITE":"AFETR","RCS_SIZE":"LARGE","OBJECT_ID":"2022-052D"},{"SEMIMAJOR_AXIS":"6917.910","APOAPSIS":"540.346","TLE_LINE2":"2 52602  53.2161 273.0039 0000825  85.9138 274.1949 15.08830338 42379","FILE":"3787692","COUNTRY_CODE":"US","OBJECT_NAME":"STARLINK-4012","RA_OF_ASC_NODE":"273.0039","ECCENTRICITY":"0.00008250","MEAN_ANOMALY":"274.1949","SITE":"AFETR","MEAN_ELEMENT_THEORY":"SGP4","OBJECT_ID":"2022-052E","RCS_SIZE":"LARGE","ELEMENT_SET_NO":"999","BSTAR":"0.00118430000000","REV_AT_EPOCH":"4237","PERIOD":"95.438","OBJECT_TYPE":"PAYLOAD","DECAY_DATE":null,"REF_FRAME":"TEME","NORAD_CAT_ID":"52602","MEAN_MOTION_DOT":"0.00018605","CENTER_NAME":"EARTH","LAUNCH_DATE":"2022-05-14","MEAN_MOTION_DDOT":"0.0000000000000","EPOCH":"2023-02-12T08:25:46.883712","TLE_LINE1":"1 52602U 22052E   23043.35123708  .00018605  00000-0  11843-2 0  9996","CLASSIFICATION_TYPE":"U","EPHEMERIS_TYPE":"0","ARG_OF_PERICENTER":"85.9138","MEAN_MOTION":"15.08830338","PERIAPSIS":"539.204","GP_ID":"225237447","TIME_SYSTEM":"UTC","INCLINATION":"53.2161"},{"ECCENTRICITY":"0.00010280","RA_OF_ASC_NODE":"273.0758","FILE":"3787692","COUNTRY_CODE":"US","OBJECT_NAME":"STARLINK-4016","APOAPSIS":"540.450","TLE_LINE2":"2 52603  53.2136 273.0758 0001028  84.1657 275.9452 15.08842231 42376","SEMIMAJOR_AXIS":"6917.874","RCS_SIZE":"LARGE","OBJECT_ID":"2022-052F","MEAN_ELEMENT_THEORY":"SGP4","SITE":"AFETR","MEAN_ANOMALY":"275.9452","LAUNCH_DATE":"2022-05-14","CENTER_NAME":"EARTH","NORAD_CAT_ID":"52603","MEAN_MOTION_DOT":"0.00005916","OBJECT_TYPE":"PAYLOAD","REF_FRAME":"TEME","DECAY_DATE":null,"PERIOD":"95.437","BSTAR":"0.00038945000000","REV_AT_EPOCH":"4237","ELEMENT_SET_NO":"999","INCLINATION":"53.2136","TIME_SYSTEM":"UTC","GP_ID":"225236211","MEAN_MOTION":"15.08842231","PERIAPSIS":"539.027","CLASSIFICATION_TYPE":"U","ARG_OF_PERICENTER":"84.1657","EPHEMERIS_TYPE":"0","TLE_LINE1":"1 52603U 22052F   23043.33651051  .00005916  00000-0  38945-3 0  9996","EPOCH":"2023-02-12T08:04:34.508064","MEAN_MOTION_DDOT":"0.0000000000000"},{"ELEMENT_SET_NO":"999","BSTAR":"0.00014292000000","REV_AT_EPOCH":"4194","PERIOD":"95.438","OBJECT_TYPE":"PAYLOAD","REF_FRAME":"TEME","DECAY_DATE":null,"NORAD_CAT_ID":"52604","MEAN_MOTION_DOT":"0.00001987","LAUNCH_DATE":"2022-05-14","CENTER_NAME":"EARTH","MEAN_MOTION_DDOT":"0.0000000000000","EPOCH":"2023-02-12T08:15:11.068704","TLE_LINE1":"1 52604U 22052G   23043.34387811  .00001987  00000-0  14292-3 0  9991","CLASSIFICATION_TYPE":"U","EPHEMERIS_TYPE":"0","ARG_OF_PERICENTER":"74.0184","MEAN_MOTION":"15.08829984","PERIAPSIS":"539.024","GP_ID":"225266351","TIME_SYSTEM":"UTC","INCLINATION":"53.2156","SEMIMAJOR_AXIS":"6917.911","APOAPSIS":"540.528","TLE_LINE2":"2 52604  53.2156 273.0364 0001087  74.0184 286.0927 15.08829984 41942","FILE":"3787705","COUNTRY_CODE":"US","OBJECT_NAME":"STARLINK-4013","RA_OF_ASC_NODE":"273.0364","ECCENTRICITY":"0.00010870","MEAN_ANOMALY":"286.0927","SITE":"AFETR","MEAN_ELEMENT_THEORY":"SGP4","OBJECT_ID":"2022-052G","RCS_SIZE":"LARGE"},{"RCS_SIZE":"LARGE","OBJECT_ID":"2022-052H","MEAN_ELEMENT_THEORY":"SGP4","SITE":"AFETR","MEAN_ANOMALY":"277.1682","ECCENTRICITY":"0.00013580","RA_OF_ASC_NODE":"277.8830","COUNTRY_CODE":"US","OBJECT_NAME":"STARLINK-4000","FILE":"3787692","TLE_LINE2":"2 52605  53.2169 277.8830 0001358  82.9465 277.1682 15.08828067 41500","APOAPSIS":"540.721","SEMIMAJOR_AXIS":"6917.917","INCLINATION":"53.2169","GP_ID":"225236708","TIME_SYSTEM":"UTC","PERIAPSIS":"538.842","MEAN_MOTION":"15.08828067","ARG_OF_PERICENTER":"82.9465","EPHEMERIS_TYPE":"0","CLASSIFICATION_TYPE":"U","TLE_LINE1":"1 52605U 22052H   23043.37838283  .00004187  00000-0  28112-3 0  9990","EPOCH":"2023-02-12T09:04:52.276512","MEAN_MOTION_DDOT":"0.0000000000000","LAUNCH_DATE":"2022-05-14","CENTER_NAME":"EARTH","MEAN_MOTION_DOT":"0.00004187","NORAD_CAT_ID":"52605","DECAY_DATE":null,"REF_FRAME":"TEME","OBJECT_TYPE":"PAYLOAD","PERIOD":"95.438","REV_AT_EPOCH":"4150","BSTAR":"0.00028112000000","ELEMENT_SET_NO":"999"},{"SEMIMAJOR_AXIS":"6917.914","APOAPSIS":"540.620","TLE_LINE2":"2 52606  53.2149 273.0558 0001216 100.1314 259.9815 15.08829144 41573","FILE":"3787692","COUNTRY_CODE":"US","OBJECT_NAME":"STARLINK-3928","RA_OF_ASC_NODE":"273.0558","ECCENTRICITY":"0.00012160","SITE":"AFETR","MEAN_ANOMALY":"259.9815","MEAN_ELEMENT_THEORY":"SGP4","OBJECT_ID":"2022-052J","RCS_SIZE":"LARGE","ELEMENT_SET_NO":"999","BSTAR":"0.00006958300000","REV_AT_EPOCH":"4157","PERIOD":"95.438","OBJECT_TYPE":"PAYLOAD","REF_FRAME":"TEME","DECAY_DATE":null,"NORAD_CAT_ID":"52606","MEAN_MOTION_DOT":"0.00000819","LAUNCH_DATE":"2022-05-14","CENTER_NAME":"EARTH","MEAN_MOTION_DDOT":"0.0000000000000","EPOCH":"2023-02-12T08:09:53.077824","TLE_LINE1":"1 52606U 22052J   23043.34019766  .00000819  00000-0  69583-4 0  9991","CLASSIFICATION_TYPE":"U","ARG_OF_PERICENTER":"100.1314","EPHEMERIS_TYPE":"0","MEAN_MOTION":"15.08829144","PERIAPSIS":"538.937","TIME_SYSTEM":"UTC","GP_ID":"225236948","INCLINATION":"53.2149"},{"OBJECT_ID":"2022-052K","RCS_SIZE":"LARGE","SITE":"AFETR","MEAN_ANOMALY":"265.5176","MEAN_ELEMENT_THEORY":"SGP4","ECCENTRICITY":"0.00011550","RA_OF_ASC_NODE":"277.9161","SEMIMAJOR_AXIS":"6917.892","COUNTRY_CODE":"US","OBJECT_NAME":"STARLINK-3947","FILE":"3787692","TLE_LINE2":"2 52607  53.2152 277.9161 0001155  94.5948 265.5176 15.08836198 41493","APOAPSIS":"540.556","PERIAPSIS":"538.958","MEAN_MOTION":"15.08836198","EPHEMERIS_TYPE":"0","ARG_OF_PERICENTER":"94.5948","CLASSIFICATION_TYPE":"U","INCLINATION":"53.2152","GP_ID":"225235712","TIME_SYSTEM":"UTC","EPOCH":"2023-02-12T08:54:16.109856","MEAN_MOTION_DDOT":"0.0000000000000","TLE_LINE1":"1 52607U 22052K   23043.37101979  .00006934  00000-0  45337-3 0  9997","DECAY_DATE":null,"REF_FRAME":"TEME","OBJECT_TYPE":"PAYLOAD","LAUNCH_DATE":"2022-05-14","CENTER_NAME":"EARTH","MEAN_MOTION_DOT":"0.00006934","NORAD_CAT_ID":"52607","ELEMENT_SET_NO":"999","PERIOD":"95.438","REV_AT_EPOCH":"4149","BSTAR":"0.00045337000000"},{"DECAY_DATE":null,"REF_FRAME":"TEME","OBJECT_TYPE":"PAYLOAD","LAUNCH_DATE":"2022-05-14","CENTER_NAME":"EARTH","NORAD_CAT_ID":"52608","MEAN_MOTION_DOT":"-0.00001390","ELEMENT_SET_NO":"999","PERIOD":"95.438","REV_AT_EPOCH":"4200","BSTAR":"-0.00006926600000","PERIAPSIS":"539.107","MEAN_MOTION":"15.08831469","EPHEMERIS_TYPE":"0","ARG_OF_PERICENTER":"101.4237","CLASSIFICATION_TYPE":"U","INCLINATION":"53.2134","GP_ID":"225266360","TIME_SYSTEM":"UTC","EPOCH":"2023-02-12T17:31:36.109056","MEAN_MOTION_DDOT":"0.0000000000000","TLE_LINE1":"1 52608U 22052L   23043.73027904 -.00001390  00000-0 -69266-4 0  9994","ECCENTRICITY":"0.00009600","RA_OF_ASC_NODE":"271.3068","SEMIMAJOR_AXIS":"6917.906","COUNTRY_CODE":"US","OBJECT_NAME":"STARLINK-3979","FILE":"3787712","TLE_LINE2":"2 52608  53.2134 271.3068 0000960 101.4237 258.6863 15.08831469 42000","APOAPSIS":"540.436","OBJECT_ID":"2022-052L","RCS_SIZE":"LARGE","MEAN_ANOMALY":"258.6863","SITE":"AFETR","MEAN_ELEMENT_THEORY":"SGP4"}];
